{"type": "FeatureCollection", "features": [ {"type": "Feature", "properties": {"norad_id": 29999, "name": "FENGYUN 1C DEB", "group": "fengyun-1c-debris", "lat": 59.612072949380405, "lon": 179.20672085699945, "alt_km": 702.4912839474191, "timestamp": "2025-12-26T10:30:50.540652+00:00", "meta": {"OBJECT_NAME": "FENGYUN 1C DEB", "OBJECT_ID": "1999-025LZ", "EPOCH": "2025-12-25T22:23:00.400128", "MEAN_MOTION": 14.20154619, "ECCENTRICITY": 0.0189791, "INCLINATION": 98.5776, "RA_OF_ASC_NODE": 343.8016, "ARG_OF_PERICENTER": 88.5542, "MEAN_ANOMALY": 326.877, "EPHEMERIS_TYPE": 0, "CLASSIFICATION_TYPE": "U", "NORAD_CAT_ID": 29999, "ELEMENT_SET_NO": 999, "REV_AT_EPOCH": 97911, "BSTAR": 0.00032401, "MEAN_MOTION_DOT": 7.86e-06, "MEAN_MOTION_DDOT": 0}, "tle": {"line1": "1 29999U 99025LZ  25359.93264352  .00000786  00000+0  32401-3 0  9994", "line2": "2 29999  98.5776 343.8016 0189791  88.5542 326.8770 14.20154619979117"}}, "geometry": {"type": "Point", "coordinates": [179.20672085699945, 59.612072949380405]}}, {"type": "Feature", "properties": {"norad_id": 30001, "name": "FENGYUN 1C DEB", "group": "fengyun-1c-debris", "lat": -75.8947133390006, "lon": -142.80163694698896, "alt_km": 793.7130408153307, "timestamp": "2025-12-26T10:30:50.540663+00:00", "meta": {"OBJECT_NAME": "FENGYUN 1C DEB", "OBJECT_ID": "1999-025MA", "EPOCH": "2025-12-26T04:26:05.004096", "MEAN_MOTION": 14.38780859, "ECCENTRICITY": 0.0035998, "INCLINATION": 98.9581, "RA_OF_ASC_NODE": 75.8171, "ARG_OF_PERICENTER": 58.2455, "MEAN_ANOMALY": 329.6706, "EPHEMERIS_TYPE": 0, "CLASSIFICATION_TYPE": "U", "NORAD_CAT_ID": 30001, "ELEMENT_SET_NO": 999, "REV_AT_EPOCH": 97625, "BSTAR": 0.0023715, "MEAN_MOTION_DOT": 7.302e-05, "MEAN_MOTION_DDOT": 0}, "tle": {"line1": "1 30001U 99025MA  25360.18478014  .00007302  00000+0  23715-2 0  9999", "line2": "2 30001  98.9581  75.8171 0035998  58.2455 329.6706 14.38780859976253"}}, "geometry": {"type": "Point", "coordinates": [-142.80163694698896, -75.8947133390006]}}, {"type": "Feature", "properties": {"norad_id": 30003, "name": "FENGYUN 1C DEB", "group": "fengyun-1c-debris", "lat": -26.61927282907334, "lon": -19.61035175190769, "alt_km": 985.2538562900827, "timestamp": "2025-12-26T10:30:50.540673+00:00", "meta": {"OBJECT_NAME": "FENGYUN 1C DEB", "OBJECT_ID": "1999-025MC", "EPOCH": "2025-12-25T16:25:34.328640", "MEAN_MOTION": 13.85635284, "ECCENTRICITY": 0.01436183, "INCLINATION": 99.5785, "RA_OF_ASC_NODE": 334.765, "ARG_OF_PERICENTER": 85.6895, "MEAN_ANOMALY": 91.4611, "EPHEMERIS_TYPE": 0, "CLASSIFICATION_TYPE": "U", "NORAD_CAT_ID": 30003, "ELEMENT_SET_NO": 999, "REV_AT_EPOCH": 95667, "BSTAR": 0.00034258539, "MEAN_MOTION_DOT": 3.79e-06, "MEAN_MOTION_DDOT": 0}, "tle": {"line1": "1 30003U 99025MC  25359.68442510  .00000379  00000+0  34259-3 0  9999", "line2": "2 30003  99.5785 334.7650 0143618  85.6895  91.4611 13.85635284956673"}}, "geometry": {"type": "Point", "coordinates": [-19.61035175190769, -26.61927282907334]}}, {"type": "Feature", "properties": {"norad_id": 30004, "name": "FENGYUN 1C DEB", "group": "fengyun-1c-debris", "lat": -77.07636511220518, "lon": -132.85030311184326, "alt_km": 817.3104077445978, "timestamp": "2025-12-26T10:30:50.540683+00:00", "meta": {"OBJECT_NAME": "FENGYUN 1C DEB", "OBJECT_ID": "1999-025MD", "EPOCH": "2025-12-26T02:57:57.713760", "MEAN_MOTION": 14.17097139, "ECCENTRICITY": 0.0038432, "INCLINATION": 99.2236, "RA_OF_ASC_NODE": 181.7408, "ARG_OF_PERICENTER": 304.9049, "MEAN_ANOMALY": 170.8347, "EPHEMERIS_TYPE": 0, "CLASSIFICATION_TYPE": "U", "NORAD_CAT_ID": 30004, "ELEMENT_SET_NO": 999, "REV_AT_EPOCH": 97496, "BSTAR": 0.00070147, "MEAN_MOTION_DOT": 1.375e-05, "MEAN_MOTION_DDOT": 0}, "tle": {"line1": "1 30004U 99025MD  25360.12358465  .00001375  00000+0  70147-3 0  9999", "line2": "2 30004  99.2236 181.7408 0038432 304.9049 170.8347 14.17097139974965"}}, "geometry": {"type": "Point", "coordinates": [-132.85030311184326, -77.07636511220518]}}, {"type": "Feature", "properties": {"norad_id": 30005, "name": "FENGYUN 1C DEB", "group": "fengyun-1c-debris", "lat": 17.665536294718645, "lon": 144.55392357485738, "alt_km": 1114.8615482788455, "timestamp": "2025-12-26T10:30:50.540693+00:00", "meta": {"OBJECT_NAME": "FENGYUN 1C DEB", "OBJECT_ID": "1999-025ME", "EPOCH": "2025-12-24T20:27:41.265216", "MEAN_MOTION": 13.52248613, "ECCENTRICITY": 0.03472589, "INCLINATION": 99.3042, "RA_OF_ASC_NODE": 320.0713, "ARG_OF_PERICENTER": 62.757, "MEAN_ANOMALY": 300.8498, "EPHEMERIS_TYPE": 0, "CLASSIFICATION_TYPE": "U", "NORAD_CAT_ID": 30005, "ELEMENT_SET_NO": 999, "REV_AT_EPOCH": 93110, "BSTAR": 0.0014566307, "MEAN_MOTION_DOT": 1.365e-05, "MEAN_MOTION_DDOT": 0}, "tle": {"line1": "1 30005U 99025ME  25358.85256094  .00001365  00000+0  14566-2 0  9993", "line2": "2 30005  99.3042 320.0713 0347258  62.7570 300.8498 13.52248613931100"}}, "geometry": {"type": "Point", "coordinates": [144.55392357485738, 17.665536294718645]}}, {"type": "Feature", "properties": {"norad_id": 30007, "name": "FENGYUN 1C DEB", "group": "fengyun-1c-debris", "lat": 29.553739518282256, "lon": -102.83956096736085, "alt_km": 777.2133366479175, "timestamp": "2025-12-26T10:30:50.540704+00:00", "meta": {"OBJECT_NAME": "FENGYUN 1C DEB", "OBJECT_ID": "1999-025MG", "EPOCH": "2025-12-26T04:16:45.945120", "MEAN_MOTION": 14.25527175, "ECCENTRICITY": 0.0065168, "INCLINATION": 99.1779, "RA_OF_ASC_NODE": 262.1484, "ARG_OF_PERICENTER": 337.1943, "MEAN_ANOMALY": 159.8823, "EPHEMERIS_TYPE": 0, "CLASSIFICATION_TYPE": "U", "NORAD_CAT_ID": 30007, "ELEMENT_SET_NO": 999, "REV_AT_EPOCH": 97547, "BSTAR": 0.0018552, "MEAN_MOTION_DOT": 4.439e-05, "MEAN_MOTION_DDOT": 0}, "tle": {"line1": "1 30007U 99025MG  25360.17830955  .00004439  00000+0  18552-2 0  9991", "line2": "2 30007  99.1779 262.1484 0065168 337.1943 159.8823 14.25527175975474"}}, "geometry": {"type": "Point", "coordinates": [-102.83956096736085, 29.553739518282256]}}, {"type": "Feature", "properties": {"norad_id": 30008, "name": "FENGYUN 1C DEB", "group": "fengyun-1c-debris", "lat": 35.94566717774776, "lon": 145.61559777697659, "alt_km": 641.7037589133315, "timestamp": "2025-12-26T10:30:50.540714+00:00", "meta": {"OBJECT_NAME": "FENGYUN 1C DEB", "OBJECT_ID": "1999-025MH", "EPOCH": "2025-12-25T21:00:48.836736", "MEAN_MOTION": 14.66564878, "ECCENTRICITY": 0.00396444, "INCLINATION": 99.3705, "RA_OF_ASC_NODE": 318.0971, "ARG_OF_PERICENTER": 151.1046, "MEAN_ANOMALY": 264.1424, "EPHEMERIS_TYPE": 0, "CLASSIFICATION_TYPE": "U", "NORAD_CAT_ID": 30008, "ELEMENT_SET_NO": 999, "REV_AT_EPOCH": 99252, "BSTAR": 0.0020564697, "MEAN_MOTION_DOT": 0.00011501, "MEAN_MOTION_DDOT": 0}, "tle": {"line1": "1 30008U 99025MH  25359.87556524  .00011501  00000+0  20565-2 0  9999", "line2": "2 30008  99.3705 318.0971 0039644 151.1046 264.1424 14.66564878992524"}}, "geometry": {"type": "Point", "coordinates": [145.61559777697659, 35.94566717774776]}}, {"type": "Feature", "properties": {"norad_id": 30009, "name": "FENGYUN 1C DEB", "group": "fengyun-1c-debris", "lat": 50.59116772730169, "lon": 44.130811488768344, "alt_km": 891.9353103816102, "timestamp": "2025-12-26T10:30:50.540724+00:00", "meta": {"OBJECT_NAME": "FENGYUN 1C DEB", "OBJECT_ID": "1999-025MJ", "EPOCH": "2025-12-26T03:25:58.574784", "MEAN_MOTION": 14.04895461, "ECCENTRICITY": 0.0064525, "INCLINATION": 99.0142, "RA_OF_ASC_NODE": 54.9768, "ARG_OF_PERICENTER": 297.0748, "MEAN_ANOMALY": 62.3845, "EPHEMERIS_TYPE": 0, "CLASSIFICATION_TYPE": "U", "NORAD_CAT_ID": 30009, "ELEMENT_SET_NO": 999, "REV_AT_EPOCH": 96671, "BSTAR": 0.00095151, "MEAN_MOTION_DOT": 1.513e-05, "MEAN_MOTION_DDOT": 0}, "tle": {"line1": "1 30009U 99025MJ  25360.14303906  .00001513  00000+0  95151-3 0  9992", "line2": "2 30009  99.0142  54.9768 0064525 297.0748  62.3845 14.04895461966716"}}, "geometry": {"type": "Point", "coordinates": [44.130811488768344, 50.59116772730169]}}, {"type": "Feature", "properties": {"norad_id": 30010, "name": "FENGYUN 1C DEB", "group": "fengyun-1c-debris", "lat": 26.694808741744342, "lon": 17.658824905611937, "alt_km": 757.0777986677231, "timestamp": "2025-12-26T10:30:50.540734+00:00", "meta": {"OBJECT_NAME": "FENGYUN 1C DEB", "OBJECT_ID": "1999-025MK", "EPOCH": "2025-12-25T12:02:51.464256", "MEAN_MOTION": 14.24995538, "ECCENTRICITY": 0.0073246, "INCLINATION": 99.0695, "RA_OF_ASC_NODE": 192.0851, "ARG_OF_PERICENTER": 172.6102, "MEAN_ANOMALY": 220.9824, "EPHEMERIS_TYPE": 0, "CLASSIFICATION_TYPE": "U", "NORAD_CAT_ID": 30010, "ELEMENT_SET_NO": 999, "REV_AT_EPOCH": 98442, "BSTAR": 0.00012459, "MEAN_MOTION_DOT": 2.53e-06, "MEAN_MOTION_DDOT": 0}, "tle": {"line1": "1 30010U 99025MK  25359.50198454  .00000253  00000+0  12459-3 0  9992", "line2": "2 30010  99.0695 192.0851 0073246 172.6102 220.9824 14.24995538984425"}}, "geometry": {"type": "Point", "coordinates": [17.658824905611937, 26.694808741744342]}}, {"type": "Feature", "properties": {"norad_id": 30012, "name": "FENGYUN 1C DEB", "group": "fengyun-1c-debris", "lat": -25.91453566171586, "lon": 58.452849991406545, "alt_km": 1020.1522501699183, "timestamp": "2025-12-26T10:30:50.540744+00:00", "meta": {"OBJECT_NAME": "FENGYUN 1C DEB", "OBJECT_ID": "1999-025MM", "EPOCH": "2025-12-26T02:15:33.467904", "MEAN_MOTION": 13.85774697, "ECCENTRICITY": 0.0137243, "INCLINATION": 99.4624, "RA_OF_ASC_NODE": 53.4577, "ARG_OF_PERICENTER": 110.3313, "MEAN_ANOMALY": 309.6175, "EPHEMERIS_TYPE": 0, "CLASSIFICATION_TYPE": "U", "NORAD_CAT_ID": 30012, "ELEMENT_SET_NO": 999, "REV_AT_EPOCH": 95733, "BSTAR": 0.0002494, "MEAN_MOTION_DOT": 2.63e-06, "MEAN_MOTION_DDOT": 0}, "tle": {"line1": "1 30012U 99025MM  25360.09413736  .00000263  00000+0  24940-3 0  9992", "line2": "2 30012  99.4624  53.4577 0137243 110.3313 309.6175 13.85774697957330"}}, "geometry": {"type": "Point", "coordinates": [58.452849991406545, -25.91453566171586]}}]}